STARLINK-1330
1 25577C 20025AY  21325.12429616 -.00021971  00000-0 -14720-2 0  3252
2 25577  53.0529 282.6796 0001795  55.3205   5.4186 15.06423051    18
